     2.100          NAVIGATION                              RINEX VERSION / TYPE
fic2rin                                 12/09/2012 00:13:00 PGM / RUN BY / DATE
                                                            END OF HEADER
27 12 12  8  6  0  0.0 -.206785742193D-03  .341060513165D-11  .000000000000D+00
     .100000000000D+03 -.475000000000D+01  .557201781119D-08  .733774969153D+00
    -.372529029846D-07  .562399474438D-02  .912137329578D-05  .515361304855D+04
     .540000000000D+06  .596046447754D-07 -.420468918287D+00  .465661287308D-07
     .976100868256D+00  .210625000000D+03  .864271817350D+00 -.805176395972D-08
     .307512809143D-09  .100000000000D+01  .171700000000D+04  .000000000000D+00
     .340000000000D+01  .630000000000D+02 -.190921127796D-07  .100000000000D+03
     .532806000000D+06  .400000000000D+01
28 12 12  8  6  0  0.0  .211912207305D-03  .352429196937D-11  .000000000000D+00
     .440000000000D+02  .531250000000D+01  .424446251319D-08  .634412866620D+00
     .383704900742D-06  .184746523155D-01  .907853245735D-05  .515363558006D+04
     .540000000000D+06 -.251457095146D-06 -.375236872270D+00  .391155481339D-07
     .981565045758D+00  .222468750000D+03 -.180767407174D+01 -.824927218673D-08
     .197151069276D-09  .100000000000D+01  .171700000000D+04  .000000000000D+00
     .240000000000D+01  .000000000000D+00 -.107102096081D-07  .440000000000D+02
     .532806000000D+06  .400000000000D+01
29 12 12  8  6  0  0.0  .385183375329D-03  .397903932026D-11  .000000000000D+00
     .900000000000D+02 -.299687500000D+02  .474341186786D-08  .276862512714D+01
    -.161863863468D-05  .176526734140D-02  .611692667007D-05  .515373119736D+04
     .540000000000D+06 -.558793544769D-08  .665131698822D+00  .391155481339D-07
     .964797584903D+00  .262375000000D+03 -.110329339267D+01 -.815212528303D-08
    -.109647424398D-09  .100000000000D+01  .171700000000D+04  .000000000000D+00
     .340000000000D+01  .000000000000D+00 -.931322574615D-08  .900000000000D+02
     .532806000000D+06  .400000000000D+01
30 12 12  8  6  0  0.0 -.291694421321D-03  .138697942020D-10  .000000000000D+00
     .260000000000D+02 -.987500000000D+01  .460554898246D-08 -.197974444922D+00
    -.322237610817D-06  .109264408238D-01  .933930277824D-05  .515375194550D+04
     .540000000000D+06 -.614672899246D-07 -.528929076591D+00 -.335276126862D-07
     .962307818292D+00  .201375000000D+03  .161659534427D+01 -.829463121897D-08
     .325727853587D-09  .100000000000D+01  .171700000000D+04  .000000000000D+00
     .685000000000D+01  .000000000000D+00 -.465661287308D-08  .260000000000D+02
     .532806000000D+06  .400000000000D+01
31 12 12  8  6  0  0.0  .291071832180D-03  .204636307899D-11  .000000000000D+00
     .570000000000D+02 -.722500000000D+02  .401623872103D-08 -.290655342802D+01
    -.352226197720D-05  .806350179482D-02  .876747071743D-05  .515378905296D+04
     .540000000000D+06 -.186264514923D-07 -.145389561394D+01  .100582838058D-06
     .980633020650D+00  .220281250000D+03 -.838206534872D+00 -.777460955798D-08
    -.137148569931D-09  .100000000000D+01  .171700000000D+04  .000000000000D+00
     .240000000000D+01  .000000000000D+00 -.135041773319D-07  .570000000000D+02
     .532806000000D+06  .400000000000D+01
32 12 12  8  6  0  0.0 -.514933839440D-03 -.341060513165D-11  .000000000000D+00
     .750000000000D+02  .888437500000D+02  .460304887832D-08 -.227894028070D+01
     .469572842121D-05  .117405343335D-01  .892020761967D-05  .515379939461D+04
     .540000000000D+06 -.277534127235D-06  .280013018857D+01  .465661287308D-07
     .950520019397D+00  .204375000000D+03 -.439889896026D+00 -.810426614664D-08
     .229295265354D-09  .100000000000D+01  .171700000000D+04  .000000000000D+00
     .240000000000D+01  .000000000000D+00 -.325962901115D-08  .750000000000D+02
     .532806000000D+06  .400000000000D+01
 1 12 12  8  5 59 44.0  .286367721856D-03  .204636307899D-11  .000000000000D+00
     .180000000000D+02 -.275625000000D+02  .444054210926D-08 -.250917352341D+01
    -.133551657200D-05  .147903780453D-02  .101439654827D-04  .515371053314D+04
     .539984000000D+06 -.596046447754D-07  .166479257601D+01  .726431608200D-07
     .959706842111D+00  .184531250000D+03  .516369111498D+00 -.791318675885D-08
    -.251081887140D-09  .100000000000D+01  .171700000000D+04  .000000000000D+00
     .240000000000D+01  .000000000000D+00  .838190317154D-08  .180000000000D+02
     .532986000000D+06  .400000000000D+01
 9 12 12  8  5 59 44.0  .205099582672D-03  .272848410532D-11  .000000000000D+00
     .500000000000D+01 -.582500000000D+02  .391373445132D-08  .300741260191D+01
    -.303797423840D-05  .170475565828D-01  .902637839317D-05  .515284847832D+04
     .539984000000D+06  .322237610817D-06 -.148204569219D+01 -.204890966415D-07
     .984282653083D+00  .213625000000D+03  .163369730427D+01 -.761067415798D-08
    -.180007498035D-09  .100000000000D+01  .171700000000D+04  .000000000000D+00
     .240000000000D+01  .000000000000D+00 -.558793544769D-08  .500000000000D+01
     .535956000000D+06  .400000000000D+01
27 12 12  8  5 59 44.0 -.206785742193D-03  .341060513165D-11  .000000000000D+00
     .130000000000D+02 -.475000000000D+01  .557201781119D-08  .731441279808D+00
    -.372529029846D-07  .562399625778D-02  .912137329578D-05  .515361305428D+04
     .539984000000D+06  .596046447754D-07 -.420468779310D+00  .465661287308D-07
     .976100872645D+00  .210625000000D+03  .864271678373D+00 -.805176395972D-08
     .307869966877D-09  .100000000000D+01  .171700000000D+04  .000000000000D+00
     .240000000000D+01  .630000000000D+02 -.190921127796D-07  .130000000000D+02
     .535956000000D+06  .400000000000D+01
13 12 12  8  5 59 44.0  .161752104759D-03 -.272848410532D-11  .000000000000D+00
     .400000000000D+01  .793750000000D+01  .425160566787D-08 -.488842464559D+00
     .154599547386D-06  .481546309311D-02  .418722629547D-05  .515358386803D+04
     .539984000000D+06 -.130385160446D-07 -.242655116382D+01 -.391155481339D-07
     .983701362585D+00  .311812500000D+03  .207146142525D+01 -.822427114533D-08
    -.357157734196D-11  .100000000000D+01  .171700000000D+04  .000000000000D+00
     .240000000000D+01  .000000000000D+00 -.111758708954D-07  .400000000000D+01
     .535986000000D+06  .400000000000D+01
16 12 12  8  5 59 44.0 -.250552315265D-03 -.454747350886D-12  .000000000000D+00
     .110000000000D+02 -.834375000000D+01  .411195699380D-08  .833380442738D+00
    -.283122062683D-06  .669727439526D-02  .869296491146D-05  .515354190254D+04
     .539984000000D+06  .670552253723D-07 -.381699252906D+00  .130385160446D-07
     .983157799280D+00  .219781250000D+03  .280607115156D-01 -.787604235449D-08
     .238581366443D-09  .100000000000D+01  .171700000000D+04  .000000000000D+00
     .240000000000D+01  .000000000000D+00 -.977888703346D-08  .110000000000D+02
     .538326000000D+06  .400000000000D+01
 9 12 12  8  7 59 44.0  .205118674785D-03  .272848410532D-11  .000000000000D+00
     .700000000000D+01 -.485000000000D+02  .395087885568D-08 -.222512095969D+01
    -.240467488766D-05  .170498688240D-01  .824965536594D-05  .515284416771D+04
     .547184000000D+06  .238418579102D-06 -.148210081495D+01  .169500708580D-06
     .984281947957D+00  .228781250000D+03  .163372891500D+01 -.760353100330D-08
    -.800033324599D-10  .100000000000D+01  .171700000000D+04  .000000000000D+00
     .240000000000D+01  .000000000000D+00 -.558793544769D-08  .700000000000D+01
     .540006000000D+06  .400000000000D+01
13 12 12  8  7 59 44.0  .161732546985D-03 -.272848410532D-11  .000000000000D+00
     .200000000000D+02  .140625000000D+02  .424196240905D-08  .561376324560D+00
     .640749931335D-06  .481434282847D-02  .377185642719D-05  .515358174324D+04
     .547184000000D+06  .279396772385D-07 -.242661028912D+01 -.335276126862D-07
     .983701187034D+00  .317125000000D+03  .207147717210D+01 -.824462913618D-08
    -.300012496725D-10  .100000000000D+01  .171700000000D+04  .000000000000D+00
     .240000000000D+01  .000000000000D+00 -.111758708954D-07  .200000000000D+02
     .540006000000D+06  .400000000000D+01
16 12 12  8  7 59 44.0 -.250555574894D-03 -.454747350886D-12  .000000000000D+00
     .120000000000D+02 -.571875000000D+01  .413338645785D-08  .188344710301D+01
    -.447034835815D-07  .669749698136D-02  .936351716518D-05  .515354434586D+04
     .547184000000D+06  .670552253723D-07 -.381756575888D+00  .173225998878D-06
     .983159809330D+00  .210718750000D+03  .282523391548D-01 -.787925677410D-08
     .358229207399D-09  .100000000000D+01  .171700000000D+04  .000000000000D+00
     .240000000000D+01  .000000000000D+00 -.977888703346D-08  .120000000000D+02
     .540006000000D+06  .400000000000D+01
27 12 12  8  7 59 44.0 -.206761527807D-03  .341060513165D-11  .000000000000D+00
     .140000000000D+02  .281250000000D+01  .558201822775D-08  .178183036868D+01
     .178813934326D-06  .562401791103D-02  .926107168198D-05  .515361141586D+04
     .547184000000D+06 -.132247805595D-06 -.420527227276D+00  .000000000000D+00
     .976103900885D+00  .209343750000D+03  .864108782445D+00 -.794175937758D-08
     .442875590403D-09  .100000000000D+01  .171700000000D+04  .000000000000D+00
     .240000000000D+01  .630000000000D+02 -.190921127796D-07  .140000000000D+02
     .540006000000D+06  .400000000000D+01
 1 12 12  8  8  0  0.0  .286382157356D-03  .204636307899D-11  .000000000000D+00
     .190000000000D+02 -.315312500000D+02  .442196990708D-08 -.145567394008D+01
    -.156089663506D-05  .147850823123D-02  .107455998659D-04  .515371350098D+04
     .547200000000D+06  .149011611938D-07  .166473630926D+01 -.119209289551D-06
     .959704378557D+00  .173718750000D+03  .515359667302D+00 -.793818780024D-08
    -.419660337680D-09  .100000000000D+01  .171700000000D+04  .000000000000D+00
     .240000000000D+01  .000000000000D+00  .838190317154D-08  .190000000000D+02
     .540006000000D+06  .400000000000D+01
